IRIDIUM 171             
1 43929U 19002H   24150.47536115  .00000309  00000+0  10340-3 0  9995
2 43929  86.3950 306.6932 0002255  96.3504 263.7949 14.34218413281642
IRIDIUM 170             
1 43930U 19002J   24150.50088127  .00001259  00000+0  19584-3 0  9990
2 43930  86.6064 306.5048 0002582  90.9908 269.1605 14.72248800289104
IRIDIUM 167             
1 43931U 19002K   24150.53878547  .00000092  00000+0  25890-4 0  9999
2 43931  86.3942 306.4590 0002097  93.2292 266.9144 14.34217329281656
IRIDIUM 181             
1 56726U 23068S   24150.66893888  .00000505  00000+0  14322-3 0  9997
2 56726  86.8646 359.2370 0002116  93.1372 267.0072 14.43583933 54466
IRIDIUM 177             
1 56727U 23068T   24150.49956225  .00000760  00000+0  96567-4 0  9999
2 56727  86.1954 324.2380 0002455 100.9357 259.2140 14.80213854 55611
IRIDIUM 174             
1 56728U 23068U   24150.49413148  .00001492  00000+0  19300-3 0  9994
2 56728  86.1963 324.3428 0001966  88.1919 271.9527 14.80211669 55615
IRIDIUM 178             
1 56729U 23068V   24150.55631822  .00000596  00000+0  74984-4 0  9997
2 56729  86.5775 340.8952 0002152  78.7601 281.3862 14.80203265 55628
IRIDIUM 179             
1 56730U 23068W   24150.82117553  .00001862  00000+0  24135-3 0  9998
2 56730  86.6788 344.6844 0002264  73.0448 287.1021 14.80270817 55660
